[Satellite]
VERSION=1.1
NAME=ERS-1
NICKNAME=ERS-1
TLE1=1 21574U 91050A   15055.36557968  .00000639  00000-0  22786-3 0  9995
TLE2=2 21574  98.3537  10.3236 0032222 319.7056 193.4855 14.37154625236366
